#aV2019 11 28  0  0  0.00000000     288 DD+AD WGS84 FIT  NGA
## 2081 345600.00000000   300.00000000 58815 0.0000000000000
+   32     1  2  3  4  5  6  7  8  9 10 11 12 13 14 15 16 17
+         18 19 20 21 22 23 24 25 26 27 28 29 30 31 32  0  0
+          0  0  0  0  0  0  0  0  0  0  0  0  0  0  0  0  0
+          0  0  0  0  0  0  0  0  0  0  0  0  0  0  0  0  0
+          0  0  0  0  0  0  0  0  0  0  0  0  0  0  0  0  0
++         2  2  2  2  2  2  2  2  2  2  2  2  2  2  2  2  2
++         2  2  2  2  2  2  2  2  2  2  2  2  2  2  2  0  0
++         0  0  0  0  0  0  0  0  0  0  0  0  0  0  0  0  0
++         0  0  0  0  0  0  0  0  0  0  0  0  0  0  0  0  0
++         0  0  0  0  0  0  0  0  0  0  0  0  0  0  0  0  0
%c cc cc ccc ccc cccc cccc cccc cccc ccccc ccccc ccccc ccccc
%c cc cc ccc ccc cccc cccc cccc cccc ccccc ccccc ccccc ccccc
%f  0.0000000  0.000000000  0.00000000000  0.000000000000000
%f  0.0000000  0.000000000  0.00000000000  0.000000000000000
%i    0    0    0    0      0      0      0      0         0
%i    0    0    0    0      0      0      0      0         0
/*      NGA, ST. LOUIS,MO.                                  
/*   EPHEMERIS COMPUTED FROM 2 DAYS OF DATA                 
/*   EPOCHA v5 SMOOTHER                                     
/*   G1762 IERS2010 SATAF SATAPC                            
*  2019 11 28 16  5  0.00000000
P  1 -14303.097725  21682.541817   4447.407870   -212.351261                    
V  1    440.974820  -6436.637348  31680.945174     -0.125015                    
P  2  16609.042203  -3742.192452 -19728.829499   -355.871307                    
V  2  -8996.507579  24953.785356 -12049.792886     -0.075609                    
P  3 -14871.832686  13188.270831 -17632.791796    -43.896762                    
V  3 -22356.701923   -254.362212  18814.594725     -0.062408                    
P  4   -463.162282  20920.891193 -16276.937680    -14.125570                    
V  4 -12574.326667 -16667.601691 -20995.570306     -0.044473                    
P  5  26507.252646  -2824.323807    548.964785     -4.016254                    
V  5   1124.317227   2881.273371 -31396.955567     -0.004853                    
P  6  10783.052317  11000.206237 -21586.332031   -137.704329                    
V  6 -12587.759533  24425.086968   6170.659397     -0.115639                    
P  7  -3335.886546  23763.636577  11125.202406   -158.548388                    
V  7  -8897.738060  11042.499863 -27411.025255     -0.081908                    
P  8 -13316.573000   7109.869635  21895.818778    -14.920990                    
V  8 -15593.375530 -22870.592425  -1842.975822     -0.012960                    
P  9   3792.539352  22566.300947 -13529.189409    -94.901486                    
V  9 -11662.477308 -12755.658662 -24651.452161     -0.095724                    
P 10 -15125.010603 -11872.644943  18484.753925   -152.110626                    
V 10  23112.504457  -2825.009483  16935.226848     -0.145514                    
P 11  -8806.447370  22314.919268  11218.882649   -434.848467                    
V 11  -3503.098090 -15026.131107  25660.696665      0.110990                    
P 12  19671.450105  -9892.155416 -14947.794945    178.791102                    
V 12  18615.359191   1778.972624  23827.845434     -0.039731                    
P 13  16866.580925   2610.547239  20247.290907    -30.021101                    
V 13  10679.975825  23663.282687 -11802.970414      0.023709                    
P 14 -18057.933944 -15204.853531 -12023.974031    -47.904791                    
V 14  -5589.276804 -14870.504780  26306.293945      0.021984                    
P 15  12807.636853  -9261.915588  21052.939194   -269.439826                    
V 15  17484.233122  21305.766845   -860.050504      0.026875                    
P 16 -26766.927442  -1256.440764   -871.395418    -97.672398                    
V 16    901.095479  -1780.722637 -31872.246773     -0.037968                    
P 17  14615.583578  22071.087372  -2175.668863    171.234613                    
V 17   -100.911153   3852.421419  32060.456786      0.068934                    
P 18 -16361.942309  16848.763569  11807.937592    103.193856                    
V 18   3832.789272 -15584.400089  26521.326500      0.025359                    
P 19  17073.293417  17714.163255 -10279.169218   -233.563949                    
V 19   4239.669575  12004.384165  28562.474911      0.051891                    
P 20  -4469.974861 -15191.995526  21229.350611    527.556256                    
V 20  26783.899984  -5275.423680   1659.000244      0.000637                    
P 21  -1054.133421 -23148.224688  13953.402855    -79.037321                    
V 21   8236.007136 -14281.651474 -24272.533646      0.058800                    
P 22 -21122.472771  11376.742089 -11067.148966   -774.551697                    
V 22 -14817.540621  -1316.276144  26510.972954     -0.022955                    
P 23  -4951.444688  17212.261511 -19143.880542   -152.812403                    
V 23 -15845.668587 -19716.860667 -13769.207590      0.023007                    
P 24  14413.347658 -20953.886625   6807.426145     -5.508466                    
V 24   -150.175112   9716.707011  29820.996192     -0.004929                    
P 25   4950.732748 -15097.327749 -21458.081387    -17.396595                    
V 25  26759.041145   -950.869727   7170.766217     -0.000989                    
P 26 -24005.947052  -5233.084282 -10365.796242     94.182258                    
V 26  12788.699318  -3835.687754 -27525.420360      0.082735                    
P 27 -18451.326868  -5440.206645  18336.530312   -134.049307                    
V 27 -12025.799384 -20055.848011 -17635.660380     -0.117927                    
P 28  14659.180469  12886.018030  18562.197401    753.096951                    
V 28 -22364.211878    493.485468  18031.531381     -0.018003                    
P 29  -1600.952147 -22194.769734 -14512.824940     32.320974                    
V 29  10427.399623  15163.715938 -24411.309846     -0.098891                    
P 30   5552.434672  18123.726122  18559.748604    -93.985000                    
V 30 -12934.729361  19872.284248 -15755.446766     -0.085012                    
P 31 -12673.956010  -8587.407755 -21705.028375     -6.244452                    
V 31  13273.802675 -24132.977716   2251.908574     -0.025414                    
P 32 -16369.525015 -20820.276858  -2737.270418    139.260579                    
V 32    369.586864  -4515.800307  31318.894693      0.117902                    
EOF
